{
  "type": "FeatureCollection",
  "features": [
    {
      "type": "Feature",
      "properties": {
        "norad_id": 33913,
        "name": "COSMOS 2251 DEB",
        "group": "cosmos-2251-debris",
        "lat": 20.83983486563627,
        "lon": 1.9187263350842227,
        "alt_km": 753.4657410475875,
        "timestamp": "2025-12-10T07:43:55.172205+00:00",
        "meta_object_name": "COSMOS 2251 DEB",
        "meta_object_id": "1993-036DS",
        "meta_epoch": "2025-12-08T22:22:11.050176",
        "meta_mean_motion": 14.48462521,
        "meta_eccentricity": 0.0048163,
        "meta_inclination": 74.0334,
        "meta_ra_of_asc_node": 190.7788,
        "meta_arg_of_pericenter": 294.0693,
        "meta_mean_anomaly": 178.8482,
        "meta_ephemeris_type": 0,
        "meta_classification_type": "U",
        "meta_norad_cat_id": 33913,
        "meta_element_set_no": 999,
        "meta_rev_at_epoch": 88402,
        "meta_bstar": 0.00064159,
        "meta_mean_motion_dot": 2.413e-05,
        "meta_mean_motion_ddot": 0,
        "tle_line1": "1 33913U 93036DS  25342.93207234  .00002413  00000+0  64159-3 0  9993",
        "tle_line2": "2 33913  74.0334 190.7788 0048163 294.0693 178.8482 14.48462521884024"
      },
      "geometry": {
        "type": "Point",
        "coordinates": [
          1.9187263350842227,
          20.83983486563627
        ]
      }
    },
    {
      "type": "Feature",
      "properties": {
        "norad_id": 33914,
        "name": "COSMOS 2251 DEB",
        "group": "cosmos-2251-debris",
        "lat": 62.515123571770346,
        "lon": 52.323258348003975,
        "alt_km": 855.3118255245827,
        "timestamp": "2025-12-10T07:43:55.172215+00:00",
        "meta_object_name": "COSMOS 2251 DEB",
        "meta_object_id": "1993-036DT",
        "meta_epoch": "2025-12-09T19:58:29.796384",
        "meta_mean_motion": 13.71982021,
        "meta_eccentricity": 0.0301397,
        "meta_inclination": 74.0914,
        "meta_ra_of_asc_node": 19.8863,
        "meta_arg_of_pericenter": 123.6315,
        "meta_mean_anomaly": 47.8606,
        "meta_ephemeris_type": 0,
        "meta_classification_type": "U",
        "meta_norad_cat_id": 33914,
        "meta_element_set_no": 999,
        "meta_rev_at_epoch": 84041,
        "meta_bstar": 0.00069275,
        "meta_mean_motion_dot": 8.5e-06,
        "meta_mean_motion_ddot": 0,
        "tle_line1": "1 33914U 93036DT  25343.83228931  .00000850  00000+0  69275-3 0  9998",
        "tle_line2": "2 33914  74.0914  19.8863 0301397 123.6315  47.8606 13.71982021840418"
      },
      "geometry": {
        "type": "Point",
        "coordinates": [
          52.323258348003975,
          62.515123571770346
        ]
      }
    },
    {
      "type": "Feature",
      "properties": {
        "norad_id": 33915,
        "name": "COSMOS 2251 DEB",
        "group": "cosmos-2251-debris",
        "lat": 1.8401431310150247,
        "lon": 39.06458676503569,
        "alt_km": 824.5179869317935,
        "timestamp": "2025-12-10T07:43:55.172225+00:00",
        "meta_object_name": "COSMOS 2251 DEB",
        "meta_object_id": "1993-036DU",
        "meta_epoch": "2025-12-09T20:34:15.078144",
        "meta_mean_motion": 14.35073663,
        "meta_eccentricity": 0.0104557,
        "meta_inclination": 74.0442,
        "meta_ra_of_asc_node": 39.3898,
        "meta_arg_of_pericenter": 132.7147,
        "meta_mean_anomaly": 348.6464,
        "meta_ephemeris_type": 0,
        "meta_classification_type": "U",
        "meta_norad_cat_id": 33915,
        "meta_element_set_no": 999,
        "meta_rev_at_epoch": 87716,
        "meta_bstar": 0.00069053,
        "meta_mean_motion_dot": 2.07e-05,
        "meta_mean_motion_ddot": 0,
        "tle_line1": "1 33915U 93036DU  25343.85711896  .00002070  00000+0  69053-3 0  9998",
        "tle_line2": "2 33915  74.0442  39.3898 0104557 132.7147 348.6464 14.35073663877163"
      },
      "geometry": {
        "type": "Point",
        "coordinates": [
          39.06458676503569,
          1.8401431310150247
        ]
      }
    },
    {
      "type": "Feature",
      "properties": {
        "norad_id": 33916,
        "name": "COSMOS 2251 DEB",
        "group": "cosmos-2251-debris",
        "lat": 6.798127852524534,
        "lon": 46.5147751503608,
        "alt_km": 1212.1746304226244,
        "timestamp": "2025-12-10T07:43:55.172235+00:00",
        "meta_object_name": "COSMOS 2251 DEB",
        "meta_object_id": "1993-036DV",
        "meta_epoch": "2025-12-09T14:31:16.084128",
        "meta_mean_motion": 13.68608638,
        "meta_eccentricity": 0.0325412,
        "meta_inclination": 74.0529,
        "meta_ra_of_asc_node": 45.7392,
        "meta_arg_of_pericenter": 218.5466,
        "meta_mean_anomaly": 214.8234,
        "meta_ephemeris_type": 0,
        "meta_classification_type": "U",
        "meta_norad_cat_id": 33916,
        "meta_element_set_no": 999,
        "meta_rev_at_epoch": 83848,
        "meta_bstar": 0.00079978,
        "meta_mean_motion_dot": 9.7e-06,
        "meta_mean_motion_ddot": 0,
        "tle_line1": "1 33916U 93036DV  25343.60504727  .00000970  00000+0  79978-3 0  9999",
        "tle_line2": "2 33916  74.0529  45.7392 0325412 218.5466 214.8234 13.68608638838484"
      },
      "geometry": {
        "type": "Point",
        "coordinates": [
          46.5147751503608,
          6.798127852524534
        ]
      }
    },
    {
      "type": "Feature",
      "properties": {
        "norad_id": 33917,
        "name": "COSMOS 2251 DEB",
        "group": "cosmos-2251-debris",
        "lat": 66.93947725817301,
        "lon": 168.3647291408234,
        "alt_km": 1214.5880771523134,
        "timestamp": "2025-12-10T07:43:55.172245+00:00",
        "meta_object_name": "COSMOS 2251 DEB",
        "meta_object_id": "1993-036DW",
        "meta_epoch": "2025-12-09T19:04:51.754080",
        "meta_mean_motion": 13.69351867,
        "meta_eccentricity": 0.0331232,
        "meta_inclination": 74.1068,
        "meta_ra_of_asc_node": 127.2217,
        "meta_arg_of_pericenter": 228.8261,
        "meta_mean_anomaly": 128.3855,
        "meta_ephemeris_type": 0,
        "meta_classification_type": "U",
        "meta_norad_cat_id": 33917,
        "meta_element_set_no": 999,
        "meta_rev_at_epoch": 83693,
        "meta_bstar": 0.0011347,
        "meta_mean_motion_dot": 1.426e-05,
        "meta_mean_motion_ddot": 0,
        "tle_line1": "1 33917U 93036DW  25343.79504345  .00001426  00000+0  11347-2 0  9998",
        "tle_line2": "2 33917  74.1068 127.2217 0331232 228.8261 128.3855 13.69351867836936"
      },
      "geometry": {
        "type": "Point",
        "coordinates": [
          168.3647291408234,
          66.93947725817301
        ]
      }
    },
    {
      "type": "Feature",
      "properties": {
        "norad_id": 33920,
        "name": "COSMOS 2251 DEB",
        "group": "cosmos-2251-debris",
        "lat": 68.90357492782452,
        "lon": 75.230612449943,
        "alt_km": 716.3627478624512,
        "timestamp": "2025-12-10T07:43:55.172255+00:00",
        "meta_object_name": "COSMOS 2251 DEB",
        "meta_object_id": "1993-036DZ",
        "meta_epoch": "2025-12-09T08:12:16.632288",
        "meta_mean_motion": 14.58175979,
        "meta_eccentricity": 0.0038367,
        "meta_inclination": 74.0621,
        "meta_ra_of_asc_node": 304.8836,
        "meta_arg_of_pericenter": 311.9073,
        "meta_mean_anomaly": 47.8822,
        "meta_ephemeris_type": 0,
        "meta_classification_type": "U",
        "meta_norad_cat_id": 33920,
        "meta_element_set_no": 999,
        "meta_rev_at_epoch": 88065,
        "meta_bstar": 0.0028547893,
        "meta_mean_motion_dot": 0.00013297,
        "meta_mean_motion_ddot": 0,
        "tle_line1": "1 33920U 93036DZ  25343.34185917  .00013297  00000+0  28548-2 0  9993",
        "tle_line2": "2 33920  74.0621 304.8836 0038367 311.9073  47.8822 14.58175979880656"
      },
      "geometry": {
        "type": "Point",
        "coordinates": [
          75.230612449943,
          68.90357492782452
        ]
      }
    },
    {
      "type": "Feature",
      "properties": {
        "norad_id": 33922,
        "name": "COSMOS 2251 DEB",
        "group": "cosmos-2251-debris",
        "lat": -36.436086911491124,
        "lon": 140.10512346465953,
        "alt_km": 724.6987955581362,
        "timestamp": "2025-12-10T07:43:55.172265+00:00",
        "meta_object_name": "COSMOS 2251 DEB",
        "meta_object_id": "1993-036EB",
        "meta_epoch": "2025-12-09T18:43:43.053024",
        "meta_mean_motion": 14.49491023,
        "meta_eccentricity": 0.0023264,
        "meta_inclination": 74.0465,
        "meta_ra_of_asc_node": 153.3119,
        "meta_arg_of_pericenter": 264.2582,
        "meta_mean_anomaly": 111.3686,
        "meta_ephemeris_type": 0,
        "meta_classification_type": "U",
        "meta_norad_cat_id": 33922,
        "meta_element_set_no": 999,
        "meta_rev_at_epoch": 88535,
        "meta_bstar": 0.00076929,
        "meta_mean_motion_dot": 2.931e-05,
        "meta_mean_motion_ddot": 0,
        "tle_line1": "1 33922U 93036EB  25343.78035941  .00002931  00000+0  76929-3 0  9994",
        "tle_line2": "2 33922  74.0465 153.3119 0023264 264.2582 111.3686 14.49491023885358"
      },
      "geometry": {
        "type": "Point",
        "coordinates": [
          140.10512346465953,
          -36.436086911491124
        ]
      }
    }
  ]
}